{"epoch":1784902576,"count":18312,"objects":[{"id":"41601","name":"SKYSAT C1","type":"PAYLOAD","l1":"1 41601U 16040C   26205.07511072  .00010549  00000-0  29470-3 0  9995","l2":"2 41601  96.9555 234.8056 0001101 183.9423 176.1814 15.36866751563532"},{"id":"41603","name":"LAPAN A3","type":"PAYLOAD","l1":"1 41603U 16040E   26205.26145670  .00003868  00000-0  12236-3 0  9993","l2":"2 41603  97.1510 200.1983 0008520 235.9111 124.1324 15.33322655560495"},{"id":"41727","name":"GAOFEN 3","type":"PAYLOAD","l1":"1 41727U 16049A   26205.27054240  .00000163  00000-0  62691-4 0  9998","l2":"2 41727  98.4029 212.4979 0001767  81.2381 278.9008 14.42219805523991"},{"id":"41771","name":"SKYSAT C4","type":"PAYLOAD","l1":"1 41771U 16058B   26205.02172241  .00016527  00000-0  29966-3 0  9990","l2":"2 41771  96.9179 225.2763 0003589 107.3710 252.7935 15.49668273551177"},{"id":"41772","name":"SKYSAT C5","type":"PAYLOAD","l1":"1 41772U 16058C   26205.08417871  .00008510  00000-0  26241-3 0  9994","l2":"2 41772  97.0458 244.0596 0003436 139.9544 220.1954 15.33815874549407"},{"id":"41773","name":"SKYSAT C2","type":"PAYLOAD","l1":"1 41773U 16058D   26205.04266207  .00011517  00000-0  26451-3 0  9990","l2":"2 41773  97.0166 225.7676 0000720 262.9410  97.1756 15.42840154550730"},{"id":"41774","name":"SKYSAT C3","type":"PAYLOAD","l1":"1 41774U 16058E   26205.05693707  .00022492  00000-0  34850-3 0  9997","l2":"2 41774  96.9002 234.5198 0002927 122.1445 238.0094 15.54026924551838"},{"id":"41785","name":"ALSAT 1B","type":"PAYLOAD","l1":"1 41785U 16059C   26205.27989644  .00000609  00000-0  10374-3 0  9993","l2":"2 41785  97.7767 212.4441 0010770 104.3741 255.8663 14.72300709526037"},{"id":"41787","name":"PATHFINDER 1","type":"PAYLOAD","l1":"1 41787U 16059E   26205.22422389  .00000671  00000-0  12528-3 0  9990","l2":"2 41787  97.8183 202.8318 0029971  88.3294 272.1344 14.67702267525143"},{"id":"41790","name":"SCATSAT 1","type":"PAYLOAD","l1":"1 41790U 16059H   26205.13852114  .00001412  00000-0  19092-3 0  9994","l2":"2 41790  98.1170 269.2826 0055708 128.2241 232.4004 14.79606284107054"},{"id":"41875","name":"GOKTURK-1A","type":"PAYLOAD","l1":"1 41875U 16073A   26205.32038753  .00000276  00000-0  63240-4 0  9992","l2":"2 41875  98.1200  99.4043 0001426  83.1115 277.0249 14.62797897514256"},{"id":"41877","name":"RESOURCESAT 2A","type":"PAYLOAD","l1":"1 41877U 16074A   26205.30309756 -.00000008  00000-0  16314-4 0  9991","l2":"2 41877  98.7513 278.5012 0001819   6.6336 353.4865 14.21610422499571"},{"id":"41948","name":"CARTOSAT 2D","type":"PAYLOAD","l1":"1 41948U 17008A   26204.44911100  .00003968  00000-0  19096-3 0  9990","l2":"2 41948  97.4087 263.0730 0006506 117.0345 243.1554 15.19329256523087"},{"id":"42063","name":"SENTINEL 2B","type":"PAYLOAD","l1":"1 42063U 17013A   26205.34038507  .00000043  00000-0  33213-4 0  9995","l2":"2 42063  98.5678 279.5877 0001253  94.1256 266.0070 14.30816951489957"},{"id":"42767","name":"CARTOSAT 2E","type":"PAYLOAD","l1":"1 42767U 17036C   26204.59876079  .00004931  00000-0  23677-3 0  9993","l2":"2 42767  97.4256 263.7967 0004182 159.7710 200.3691 15.19302949503671"},{"id":"42920","name":"FORMOSAT-5","type":"PAYLOAD","l1":"1 42920U 17049A   26205.29294340  .00000108  00000-0  38536-4 0  9994","l2":"2 42920  98.2240 279.7759 0010786 334.9682  25.0989 14.50894681472054"},{"id":"42969","name":"SENTINEL 5P","type":"PAYLOAD","l1":"1 42969U 17064A   26205.27744157  .00000037  00000-0  38662-4 0  9999","l2":"2 42969  98.7929 147.1466 0001210  92.3651 267.7663 14.19524514454821"},{"id":"42987","name":"SKYSAT C11","type":"PAYLOAD","l1":"1 42987U 17068A   26204.39086712  .00030498  00000-0  38262-3 0  9990","l2":"2 42987  97.4380 354.8568 0001508 147.1025 213.0325 15.59689712488881"},{"id":"42988","name":"SKYSAT C10","type":"PAYLOAD","l1":"1 42988U 17068B   26205.32068964  .00012475  00000-0  36655-3 0  9993","l2":"2 42988  97.4540 342.5552 0001564 109.8876 250.2536 15.35263113488051"},{"id":"42989","name":"SKYSAT C9","type":"PAYLOAD","l1":"1 42989U 17068C   26205.29293863  .00015521  00000-0  36078-3 0  9992","l2":"2 42989  97.4461 343.8231 0007858  13.5285 346.6171 15.42394307488478"},{"id":"42990","name":"SKYSAT C8","type":"PAYLOAD","l1":"1 42990U 17068D   26205.29999139  .00012544  00000-0  34163-3 0  9998","l2":"2 42990  97.4557 342.4774 0001345 108.3224 251.8167 15.37637218488011"},{"id":"42991","name":"SKYSAT C7","type":"PAYLOAD","l1":"1 42991U 17068E   26205.16460973  .00012001  00000-0  32744-3 0  9995","l2":"2 42991  97.4568 343.3323 0004916 348.5353  11.5779 15.37581204488059"},{"id":"42992","name":"SKYSAT C6","type":"PAYLOAD","l1":"1 42992U 17068F   26205.32406658  .00010775  00000-0  32673-3 0  9991","l2":"2 42992  97.4606 343.3062 0004723  65.9717 294.2020 15.34296227488013"},{"id":"43111","name":"CARTOSAT 2F","type":"PAYLOAD","l1":"1 43111U 18004A   26205.29038787  .00002901  00000-0  14102-3 0  9995","l2":"2 43111  97.4772 264.5576 0002895 119.6100 240.5423 15.19226165472961"},{"id":"43259","name":"GAOFEN 1-02","type":"PAYLOAD","l1":"1 43259U 18031A   26205.03019237  .00000535  00000-0  84201-4 0  9998","l2":"2 43259  98.0508 267.4501 0001616 229.4078 130.6991 14.76480520448132"},{"id":"43260","name":"GAOFEN 1-03","type":"PAYLOAD","l1":"1 43260U 18031B   26205.27942409  .00000760  00000-0  11658-3 0  9997","l2":"2 43260  98.0501 267.5529 0001685 345.1843  14.9317 14.76472882448161"},{"id":"43262","name":"GAOFEN 1-04","type":"PAYLOAD","l1":"1 43262U 18031D   26205.32300988  .00000466  00000-0  74429-4 0  9994","l2":"2 43262  98.0509 267.7916 0000764  59.3796 300.7489 14.76446339448165"},{"id":"43437","name":"SENTINEL 3B","type":"PAYLOAD","l1":"1 43437U 18039A   26205.14813959  .00000090  00000-0  55391-4 0  9993","l2":"2 43437  98.6229 272.1463 0001331 117.7682 242.3634 14.26738369429394"},{"id":"43461","name":"GAOFEN-5","type":"PAYLOAD","l1":"1 43461U 18043A   26204.84867860  .00000276  00000-0  66747-4 0  9994","l2":"2 43461  98.4599 177.2109 0001556  12.6635 347.4604 14.60627608437047"},{"id":"43484","name":"GAOFEN 6","type":"PAYLOAD","l1":"1 43484U 18048A   26205.27815699  .00000960  00000-0  14561-3 0  9991","l2":"2 43484  98.0952 268.0010 0011876  56.1738 304.0600 14.76392902438863"}]}