OBJECT_NAME,OBJECT_ID,EPOCH,MEAN_MOTION,ECCENTRICITY,INCLINATION,RA_OF_ASC_NODE,ARG_OF_PERICENTER,MEAN_ANOMALY,EPHEMERIS_TYPE,CLASSIFICATION_TYPE,NORAD_CAT_ID,ELEMENT_SET_NO,REV_AT_EPOCH,BSTAR,MEAN_MOTION_DOT,MEAN_MOTION_DDOT
SKYSAT-C1,2016-040C,2026-07-24T01:48:09.566208,15.36866751,.00011012,96.9555,234.8056,183.9423,176.1814,0,U,41601,999,56353,.29470375E-3,.10549E-3,0
LAPAN-A3,2016-040E,2026-07-24T06:16:29.858880,15.33322655,.000852,97.1510,200.1983,235.9111,124.1324,0,U,41603,999,56049,.12235789E-3,.3868E-4,0
GAOFEN-3,2016-049A,2026-07-24T06:29:34.863360,14.42219805,.00017669,98.4029,212.4979,81.2381,278.9008,0,U,41727,999,52399,.62690958E-4,.163E-5,0
SKYSAT-C4,2016-058B,2026-07-24T00:31:16.816224,15.49668273,.00035895,96.9179,225.2763,107.3710,252.7935,0,U,41771,999,55117,.29965837E-3,.16527E-3,0
SKYSAT-C5,2016-058C,2026-07-24T02:01:13.040544,15.33815874,.00034356,97.0458,244.0596,139.9544,220.1954,0,U,41772,999,54940,.26241247E-3,.851E-4,0
SKYSAT-C2,2016-058D,2026-07-24T01:01:26.002848,15.42840154,.00007205,97.0166,225.7676,262.9410,97.1756,0,U,41773,999,55073,.26450753E-3,.11517E-3,0
SKYSAT-C3,2016-058E,2026-07-24T01:21:59.362848,15.54026924,.00029269,96.9002,234.5198,122.1445,238.0094,0,U,41774,999,55183,.34850385E-3,.22492E-3,0
ALSAT-1B,2016-059C,2026-07-24T06:43:03.052416,14.72300709,.00107703,97.7767,212.4441,104.3741,255.8663,0,U,41785,999,52603,.10374043E-3,.609E-5,0
PATHFINDER 1,2016-059E,2026-07-24T05:22:52.944096,14.67702267,.00299709,97.8183,202.8318,88.3294,272.1344,0,U,41787,999,52514,.12528086E-3,.671E-5,0
SCATSAT 1,2016-059H,2026-07-24T03:19:28.226496,14.79606284,.00557081,98.1170,269.2826,128.2241,232.4004,0,U,41790,999,10705,.19091668E-3,.1412E-4,0
GOKTURK 1A,2016-073A,2026-07-24T07:41:21.482592,14.62797897,.00014263,98.1200,99.4043,83.1115,277.0249,0,U,41875,999,51425,.63240104E-4,.276E-5,0
RESOURCESAT-2A,2016-074A,2026-07-24T07:16:27.629184,14.21610422,.00018193,98.7513,278.5012,6.6336,353.4865,0,U,41877,999,49957,.16314219E-4,-.8E-7,0
CARTOSAT-2D,2017-008A,2026-07-23T10:46:43.190400,15.19329256,.0006506,97.4087,263.0730,117.0345,243.1554,0,U,41948,999,52308,.19096E-3,.3968E-4,0
SENTINEL-2B,2017-013A,2026-07-24T08:10:09.270048,14.30816951,.00012525,98.5678,279.5877,94.1256,266.0070,0,U,42063,999,48995,.33212941E-4,.43E-6,0
CARTOSAT-2E,2017-036C,2026-07-23T14:22:12.932256,15.19302949,.0004182,97.4256,263.7967,159.7710,200.3691,0,U,42767,999,50367,.23677E-3,.4931E-4,0
FORMOSAT-5,2017-049A,2026-07-24T07:01:50.309760,14.50894681,.00107863,98.2240,279.7759,334.9682,25.0989,0,U,42920,999,47205,.38536137E-4,.108E-5,0
SENTINEL-5P,2017-064A,2026-07-24T06:39:30.951648,14.19524514,.00012103,98.7929,147.1466,92.3651,267.7663,0,U,42969,999,45482,.38662117E-4,.37E-6,0
SKYSAT-C11,2017-068A,2026-07-23T09:22:50.919168,15.59689712,.0001508,97.4380,354.8568,147.1025,213.0325,0,U,42987,999,48888,.38262E-3,.30498E-3,0
SKYSAT-C10,2017-068B,2026-07-24T07:41:47.584896,15.35263113,.00015637,97.4540,342.5552,109.8876,250.2536,0,U,42988,999,48805,.36654998E-3,.12475E-3,0
SKYSAT-C9,2017-068C,2026-07-24T07:01:49.897632,15.42394307,.00078577,97.4461,343.8231,13.5285,346.6171,0,U,42989,999,48847,.36077919E-3,.15521E-3,0
SKYSAT-C8,2017-068D,2026-07-24T07:11:59.256096,15.37637218,.00013448,97.4557,342.4774,108.3224,251.8167,0,U,42990,999,48801,.34163175E-3,.12544E-3,0
SKYSAT-C7,2017-068E,2026-07-24T03:57:02.280672,15.37581204,.00049162,97.4568,343.3323,348.5353,11.5779,0,U,42991,999,48805,.32743833E-3,.12001E-3,0
SKYSAT-C6,2017-068F,2026-07-24T07:46:39.352512,15.34296227,.00047235,97.4606,343.3062,65.9717,294.2020,0,U,42992,999,48801,.32672779E-3,.10775E-3,0
CARTOSAT-2F,2018-004A,2026-07-24T06:58:09.511968,15.19226165,.00028955,97.4772,264.5576,119.6100,240.5423,0,U,43111,999,47296,.14102052E-3,.2901E-4,0
GAOFEN-1 02,2018-031A,2026-07-24T00:43:28.620768,14.76480520,.00016161,98.0508,267.4501,229.4078,130.6991,0,U,43259,999,44813,.84201056E-4,.535E-5,0
GAOFEN-1 03,2018-031B,2026-07-24T06:42:22.241376,14.76472882,.00016845,98.0501,267.5529,345.1843,14.9317,0,U,43260,999,44816,.11657604E-3,.76E-5,0
GAOFEN-1 04,2018-031D,2026-07-24T07:45:08.053632,14.76446339,.00007638,98.0509,267.7916,59.3796,300.7489,0,U,43262,999,44816,.7442913E-4,.466E-5,0
SENTINEL-3B,2018-039A,2026-07-24T03:33:19.260576,14.26738369,.00013307,98.6229,272.1463,117.7682,242.3634,0,U,43437,999,42939,.55391E-4,.9E-6,0
GAOFEN-5 01,2018-043A,2026-07-23T20:22:05.831040,14.60627608,.00015556,98.4599,177.2109,12.6635,347.4604,0,U,43461,999,43704,.66747471E-4,.276E-5,0
GAOFEN-6,2018-048A,2026-07-24T06:40:32.763936,14.76392902,.00118763,98.0952,268.0010,56.1738,304.0600,0,U,43484,999,43886,.14560678E-3,.96E-5,0
